NORAD_CAT_ID,OBJECT_NAME,OBJECT_TYPE,EPOCH,MEAN_MOTION,ECCENTRICITY,INCLINATION,RA_OF_ASC_NODE,ARG_OF_PERICENTER,MEAN_ANOMALY,BSTAR,MEAN_MOTION_DOT,MEAN_MOTION_DDOT,TLE_LINE0,TLE_LINE1,TLE_LINE2,SEMIMAJOR_AXIS,PERIOD,APOGEE,PERIGEE,DECAYED
52281.0,STARLINK-3779,PAYLOAD,2022-07-10 14:00:01,15.08850103,0.000162,53.2176,356.0982,48.1701,96.7135,-0.0014624,-0.00023493,0.0,0 STARLINK-3779,1 52281U 22041W   22191.58334491 -.00023493  00000-0 -14624-2 0  9991,2 52281  53.2176 356.0982 0001620  48.1701  96.7135 15.08850103  1303,6917.85,95.437,540.835,538.594,0.0
52281.0,STARLINK-3779,PAYLOAD,2022-07-10 22:00:00,15.08820335,0.0001758,53.217,354.6028,41.9307,114.5596,0.0031805,0.00050667,0.0,0 STARLINK-3779,1 52281U 22041W   22191.91667824  .00050667  00000-0  31805-2 0  9998,2 52281  53.2170 354.6028 0001758  41.9307 114.5596 15.08820335  1301,6917.94,95.439,541.0219999999998,538.589,0.0
52281.0,STARLINK-3779,PAYLOAD,2022-07-11 06:00:00,15.08840097,0.0001583,53.217,353.1047,47.7585,120.3328,0.0011722999999999,0.00018418,0.0,0 STARLINK-3779,1 52281U 22041W   22192.25001157  .00018418  00000-0  11723-2 0  9992,2 52281  53.2170 353.1047 0001583  47.7585 120.3328 15.08840097 13683,6917.88,95.438,540.84,538.65,0.0
52281.0,STARLINK-3779,PAYLOAD,2022-07-11 14:00:01,15.08863453,0.0001695,53.2172,351.6090000000001,50.4384,129.2549,-0.0030012,-0.00047767,0.0,0 STARLINK-3779,1 52281U 22041W   22192.58334491 -.00047767  00000-0 -30012-2 0  9991,2 52281  53.2172 351.6090 0001695  50.4384 129.2549 15.08863453  1308,6917.809,95.436,540.846,538.501,0.0
52281.0,STARLINK-3779,PAYLOAD,2022-07-11 22:00:00,15.08819494,0.0001834,53.2166,350.1135,45.2583,146.0389,0.0025252,0.00040107,0.0,0 STARLINK-3779,1 52281U 22041W   22192.91667824  .00040107  00000-0  25252-2 0  9996,2 52281  53.2166 350.1135 0001834  45.2583 146.0389 15.08819494 13783,6917.943,95.439,541.077,538.539,0.0
52281.0,STARLINK-3779,PAYLOAD,2022-07-12 14:00:01,15.08844777,0.0001673,53.2168,347.1198,48.4989,165.975,-0.00085534,-0.00013877,0.0,0 STARLINK-3779,1 52281U 22041W   22193.58334491 -.00013877  00000-0 -85534-3 0  9997,2 52281  53.2168 347.1198 0001673  48.4989 165.9750 15.08844777 13881,6917.866,95.437,540.888,538.573,0.0
52281.0,STARLINK-3779,PAYLOAD,2022-07-12 22:00:00,15.08828365,0.0001786999999999,53.2164,345.6242,42.4122,183.6598,0.0029037,0.00046213,0.0,0 STARLINK-3779,1 52281U 22041W   22193.91667824  .00046213  00000-0  29037-2 0  9996,2 52281  53.2164 345.6242 0001787  42.4122 183.6598 15.08828365  1305,6917.916,95.438,541.0169999999998,538.545,0.0
52281.0,STARLINK-3779,PAYLOAD,2022-07-13 06:00:00,15.08848487,0.0001565999999999,53.2167,344.1258,46.2092,191.4718,2.5271e-05,1.14e-06,0.0,0 STARLINK-3779,1 52281U 22041W   22194.25001157  .00000114  00000-0  25271-4 0  9993,2 52281  53.2167 344.1258 0001566  46.2092 191.4718 15.08848487 13987,6917.854,95.437,540.803,538.636,0.0
52281.0,STARLINK-3779,PAYLOAD,2022-07-13 14:00:01,15.08850233,0.0001671,53.2168,342.6305,45.7032,203.5418,-0.0011534,-0.00018603,0.0,0 STARLINK-3779,1 52281U 22041W   22194.58334491 -.00018603  00000-0 -11534-2 0  9998,2 52281  53.2168 342.6305 0001671  45.7032 203.5418 15.08850233 14030,6917.849,95.437,540.87,538.558,0.0
52281.0,STARLINK-3779,PAYLOAD,2022-07-13 22:00:00,15.08835186,0.0001822,53.2167,341.1349,41.5508,219.2966,-0.00029133,-4.921e-05,0.0,0 STARLINK-3779,1 52281U 22041W   22194.91667824 -.00004921  00000-0 -29133-3 0  9997,2 52281  53.2167 341.1349 0001822  41.5508 219.2966 15.08835186  1309,6917.895,95.438,541.021,538.5,0.0
52281.0,STARLINK-3779,PAYLOAD,2022-07-14 14:00:01,15.08851944,0.0001774999999999,53.2172,338.1414,45.7544,238.2612,-0.0038164,-0.00060536,0.0,0 STARLINK-3779,1 52281U 22041W   22195.58334491 -.00060536  00000-0 -38164-2 0  9999,2 52281  53.2172 338.1414 0001775  45.7544 238.2612 15.08851944  1306,6917.844,95.437,540.937,538.481,0.0
52281.0,STARLINK-3779,PAYLOAD,2022-07-14 22:00:00,15.08815509,0.000184,53.2171,336.6457,39.691,255.9106,0.0014097,0.00022204,0.0,0 STARLINK-3779,1 52281U 22041W   22195.91667824  .00022204  00000-0  14097-2 0  9992,2 52281  53.2171 336.6457 0001840  39.6910 255.9106 15.08815509 14234,6917.955,95.439,541.0930000000002,538.547,0.0
52281.0,STARLINK-3779,PAYLOAD,2022-07-15 14:00:01,15.08855233,0.0001809,53.2177,333.6526,43.3081,275.4567,-0.00091694,-0.00014858,0.0,0 STARLINK-3779,1 52281U 22041W   22196.58334491 -.00014858  00000-0 -91694-3 0  9994,2 52281  53.2177 333.6526 0001809  43.3081 275.4567 15.08855233  1300,6917.834,95.437,540.95,538.447,0.0
52281.0,STARLINK-3779,PAYLOAD,2022-07-15 22:00:00,15.08857404,0.0001848,53.2175,332.1567,37.8572,292.5122,-0.0017052,-0.00027337,0.0,0 STARLINK-3779,1 52281U 22041W   22196.91667824 -.00027337  00000-0 -17052-2 0  9991,2 52281  53.2175 332.1567 0001848  37.8572 292.5122 15.08857404  1302,6917.8269999999975,95.436,540.971,538.414,0.0
52281.0,STARLINK-3779,PAYLOAD,2022-07-16 06:00:00,15.08814504,0.0001619,53.2178,330.6588,42.1333,299.8499,0.0036763,0.00058667,0.0,0 STARLINK-3779,1 52281U 22041W   22197.25001157  .00058667  00000-0  36763-2 0  9998,2 52281  53.2178 330.6588 0001619  42.1333 299.8499 15.08814504 14430,6917.958000000001,95.439,540.943,538.703,0.0
52281.0,STARLINK-3779,PAYLOAD,2022-07-16 14:00:01,15.08863808,0.0001735,53.2179,329.1638,38.2353,315.337,-0.0036875,-0.00058537,0.0,0 STARLINK-3779,1 52281U 22041W   22197.58334491 -.00058537  00000-0 -36875-2 0  9996,2 52281  53.2179 329.1638 0001735  38.2353 315.3370 15.08863808  1302,6917.808000000001,95.436,540.873,538.472,0.0
52281.0,STARLINK-3779,PAYLOAD,2022-07-16 22:00:00,15.08841924,0.0001779,53.2176,327.6677,33.2293,331.9455,0.00067433,0.00010461,0.0,0 STARLINK-3779,1 52281U 22041W   22197.91667824  .00010461  00000-0  67433-3 0  9999,2 52281  53.2176 327.6677 0001779  33.2293 331.9455 15.08841924 14533,6917.875,95.437,540.97,538.509,0.0
52281.0,STARLINK-3779,PAYLOAD,2022-07-17 14:00:01,15.08832003,0.0001779,53.2178,324.6751,40.3787,347.9878,-0.0024533,-0.00039113,0.0,0 STARLINK-3779,1 52281U 22041W   22198.58334491 -.00039113  00000-0 -24533-2 0  9994,2 52281  53.2178 324.6751 0001779  40.3787 347.9878 15.08832003 14648,6917.905,95.438,541.001,538.539,0.0
52281.0,STARLINK-3779,PAYLOAD,2022-07-17 22:00:00,15.08822371,0.000184,53.2172,323.1821,35.6694,4.2592,-0.0001124,-2.076e-05,0.0,0 STARLINK-3779,1 52281U 22041W   22198.91667824 -.00002076  00000-0 -11240-3 0  9990,2 52281  53.2172 323.1821 0001840  35.6694   4.2592 15.08822371  1309,6917.934,95.439,541.072,538.526,0.0
52281.0,STARLINK-3779,PAYLOAD,2022-07-18 06:00:00,15.08804586,0.0001574,53.2173,321.6811,42.7964,8.7212,0.0036184,0.00057715,0.0,0 STARLINK-3779,1 52281U 22041W   22199.25001157  .00057715  00000-0  36184-2 0  9990,2 52281  53.2173 321.6811 0001574  42.7964   8.7212 15.08804586 14743,6917.989000000001,95.44,540.943,538.765,0.0
52281.0,STARLINK-3779,PAYLOAD,2022-07-18 14:00:01,15.08845859,0.0001764,53.2172,320.1864,40.2575,22.8346,-0.00086114,-0.00013969,0.0,0 STARLINK-3779,1 52281U 22041W   22199.58334491 -.00013969  00000-0 -86114-3 0  9990,2 52281  53.2172 320.1864 0001764  40.2575  22.8346 15.08845859  1307,6917.861999999999,95.437,540.948,538.507,0.0
52281.0,STARLINK-3779,PAYLOAD,2022-07-18 22:00:00,15.08861549,0.0001831,53.2168,318.6906,38.4353,36.2481,-0.0033888,-0.0005385,0.0,0 STARLINK-3779,1 52281U 22041W   22199.91667824 -.00053850  00000-0 -33888-2 0  9998,2 52281  53.2168 318.6906 0001831  38.4353  36.2481 15.08861549 14845,6917.815,95.436,540.946,538.413,0.0
52281.0,STARLINK-3779,PAYLOAD,2022-07-19 14:00:01,15.08843977,0.0001856,53.2165,315.6975,43.7035,54.1619,-0.00055894,-9.174e-05,0.0,0 STARLINK-3779,1 52281U 22041W   22200.58334491 -.00009174  00000-0 -55894-3 0  9997,2 52281  53.2165 315.6975 0001856  43.7035  54.1619 15.08843977 14946,6917.868,95.437,541.0169999999998,538.4490000000002,0.0
52281.0,STARLINK-3779,PAYLOAD,2022-07-19 22:00:00,15.08871523,0.0001934,53.2164,314.2037,40.7339,68.7174,-0.0041943999999999,-0.00066485,0.0,0 STARLINK-3779,1 52281U 22041W   22200.91667824 -.00066485  00000-0 -41944-2 0  9991,2 52281  53.2164 314.2037 0001934  40.7339  68.7174 15.08871523  1301,6917.784000000002,95.436,540.987,538.311,0.0
52281.0,STARLINK-3779,PAYLOAD,2022-07-20 14:00:01,15.088297099999998,0.0002064,53.216,311.2082,48.4176,84.2622,5.7722e-05,6.3e-06,0.0,0 STARLINK-3779,1 52281U 22041W   22201.58334491  .00000630  00000-0  57722-4 0  9997,2 52281  53.2160 311.2082 0002064  48.4176  84.2622 15.08829710  1305,6917.9119999999975,95.438,541.205,538.349,0.0
52281.0,STARLINK-3779,PAYLOAD,2022-07-20 22:00:01,15.08855392,0.0001998,53.2158,309.7113,46.0039,98.3118,-0.0038710999999999,-0.00061399,0.0,0 STARLINK-3779,1 52281U 22041W   22201.91668981 -.00061399  00000-0 -38711-2 0  9994,2 52281  53.2158 309.7113 0001998  46.0039  98.3118 15.08855392  1307,6917.833000000001,95.437,541.081,538.316,0.0
52281.0,STARLINK-3779,PAYLOAD,2022-07-21 14:00:01,15.08822572,0.0002037,53.216,306.7189,46.4252,121.0446,3.0777e-05,2.01e-06,0.0,0 STARLINK-3779,1 52281U 22041W   22202.58335648  .00000201  00000-0  30777-4 0  9998,2 52281  53.2160 306.7189 0002037  46.4252 121.0446 15.08822572 15246,6917.934,95.439,541.2080000000002,538.389,0.0
52281.0,STARLINK-3779,PAYLOAD,2022-07-21 22:00:00,15.08847988,0.0002005999999999,53.216,305.2219,45.122,133.8566,-0.0013261,-0.00021336,0.0,0 STARLINK-3779,1 52281U 22041W   22202.91667824 -.00021336  00000-0 -13261-2 0  9990,2 52281  53.2160 305.2219 0002006  45.1220 133.8566 15.08847988  1305,6917.856,95.437,541.109,538.3330000000002,0.0
52281.0,STARLINK-3779,PAYLOAD,2022-07-22 06:00:00,15.08833185,0.0001931,53.2163,303.7243,50.5359,140.0385,0.0022274,0.00035333,0.0,0 STARLINK-3779,1 52281U 22041W   22203.25001157  .00035333  00000-0  22274-2 0  9993,2 52281  53.2163 303.7243 0001931  50.5359 140.0385 15.08833185 15349,6917.901,95.438,541.102,538.43,0.0
